#dP2019  8 30  0  0  0.00000000      96 __u+U IGS08 FIT  IAC
## 2068 432000.00000000   900.00000000 58725 0.0000000000000
+  112   C01C02C03C04C05C06C07C08C09C10C11C12C13C14C16C19C20
+        C21C22C23C24C25C27C28C29C30C32C33C34C35C36C37E01E02
+        E03E04E05E07E08E09E11E12E13E14E15E18E19E21E24E25E26
+        E27E30E31E33E36G01G03G04G05G06G07G08G09G10G11G12G13
+        G14G15G16G17G18G19G20G21G22G23G24G25G26G27G28G29G30
+        G31G32J01J02J03J07R01R02R03R05R07R08R09R11R12R13R14
+        R15R16R17R18R19R20R21R22R23R24  0  0  0  0  0  0  0
++        13 13 13 13 12  8  8  8  8  8  7  7  7  8  8  7  7
++         7  7  7  8  7  7  7  8  8  7  8  8  9  8  8  4  4
++         4  4  4  4  4  4  4  4  4  4  4  4  4  4  4  4  4
++         4  4  4  4  4  3  3  4  3  3  3  3  3  3  3  3  3
++         3  3  3  3  3  3  3  3  3  3  3  3  3  3  3  3  3
++         3  3  8  8  8  0  6  7  5  5  7  5  5  5  5  6  5
++         5  6  5  5  6  6  5  5  5  6  0  0  0  0  0  0  0
%c M  cc GPS ccc cccc cccc cccc cccc ccccc ccccc ccccc ccccc
%c cc cc ccc ccc cccc cccc cccc cccc ccccc ccccc ccccc ccccc
%f  1.2500000  1.025000000  0.00000000000  0.000000000000000
%f  0.0000000  0.000000000  0.00000000000  0.000000000000000
%i    0    0    0    0      0      0      0      0         0
%i    0    0    0    0      0      0      0      0         0
/* INFORMATION & ANALYSIS CENTER (IAC)            FINAL DATA
/* S/V CLOCKS ARE ALIGNED TO GPS & GLONASS TIME RESPECTIVELY
/* USING THE BROADCAST EPHEMERIS                            
/* PCV:IGS14_2062 OL/AL:FES2004  NONE     YN ORB:CoN CLK:CoN
*  2019 08 30  9 15  0.00000000
PC01 -32334.437694  27052.376050   -956.317551    224.473886
PC02   4318.028235  41929.829380    835.547974    -60.603610
PC03 -14741.386991  39530.038229     23.993920    -76.798799
PC04 -39633.787097  14376.926015   -452.384969    110.509541
PC05  21955.703545  36006.319981   1090.799989   -163.263732
PC06  -6527.086673  33551.727839  25274.743488    442.512202
PC07 -17734.829692  22650.840441 -30775.860327    -97.941260
PC08 -22714.454120  34899.070880   5476.366035    163.497827
PC09   2887.276096  39866.836388  14187.584656    -71.091692
PC10  -3253.300815  25666.485558 -33128.516807   -128.984141
PC11   9941.044676 -21475.349989  14894.295783    184.704622
PC12  14713.897647   8330.133211  22241.513336   -237.668623
PC13 -12137.534169  36070.513355  17906.497763   -925.497433
PC14  20610.899098  -3300.231767 -18478.957270    506.862748
PC16  -3861.259947  34711.023564  23780.514956   -876.318511
PC19  -2391.178670  16505.956383  22393.982997    185.297962
PC20 -19496.371172   4640.523493  19448.719525    -15.715611
PC21  25438.354463  10355.074186  -4852.559961    337.442653
PC22  16321.941475  18968.970122  12318.210291    -44.828962
PC23  -6914.275429 -14607.754909  22762.892533   -932.086899
PC24  24629.183416 -13076.407917  -1239.983970   -916.558140
PC25  11859.725254 -19981.462798  15465.433571   -331.649892
PC27 -15052.986909  -8672.694616 -21851.392764    180.857332
PC28  -6983.032317 -24920.869845 -10455.168327    174.790830
PC29  -4108.984490  26708.241043  -6966.667527    111.462075
PC30 -13875.689790  12927.584614 -20478.093323    184.042990
PC32 -25540.940234 -10141.749715   4903.482993   -913.865365
PC33   2340.027517 -16527.721393 -22361.384502   -346.680078
PC34  13872.889542 -13139.818751  20326.852559    -37.315671
PC35   7796.094756  24721.526535  10369.141148   -285.075038
PC36 -12493.679887  19678.526587 -15321.669667   -766.904453
PC37 -22164.526795  -1034.577641  16951.064656   -420.829606
PE01  29354.533623  -1220.524143  -3553.291089   -679.367385
PE02 -29366.115212   1255.726985   3504.003073     76.412144
PE03 -21770.583676  -6509.971586  18981.474985   -205.219665
PE04  11571.443909 -12917.736302 -23982.138989   -355.061362
PE05 -19285.519134 -22284.731133   2804.291878   -453.039066
PE07   5526.685046  24946.628271  14939.780693   -256.297928
PE08 -11271.650074  13024.611624  24075.711178   6299.581300
PE09  -5859.503870 -24876.183274 -14943.920707   6332.091584
PE11   4962.551982 -27759.381423  -8992.309502   5608.795386
PE12  16553.313328 -22268.778362  10291.480936   6223.182026
PE13  -4965.787910  27797.641835   8873.014432    392.159682
PE14 -21226.812147  -1209.848040 -24610.006546   -700.824852
PE15 -16288.891418  22600.050263  -9997.375898    897.406311
PE18  15505.145023   3568.848420  17258.795372   -795.291966
PE19  22074.932365   8500.106372 -17788.097688     -4.243913
PE21  19090.401616  10851.818047 -19838.510568   -552.145268
PE24   2294.935386 -16607.756606  24390.734125   5897.439495
PE25 -19036.825460 -10894.646773  19893.097903   1694.739958
PE26   9393.307583  16726.799483  22536.639407   4165.380626
PE27  -2430.831913  16580.012508 -24391.450175    397.728972
PE30 -22441.184939  12516.960857 -14695.600589   4587.738352
PE31  22440.203029 -12577.198021  14644.575406   -467.852377
PE33  18094.849535  -4148.349074  23055.410419   -469.863231
PE36  -9299.706970 -16711.727134 -22592.943770    668.454738
PG01  12873.468152 -21884.097323  -7412.408242   -112.510648
PG03   5998.693336 -14153.842248 -21705.583759     -6.002099
PG04  16747.612067   2377.782535  20308.771974    152.183906
PG05 -23896.896463   3814.553327  11047.378919     -1.002956
PG06 -16261.912528  -2802.451081 -20778.471621    -41.074434
PG07   -653.921730 -18949.070147  18679.827661    -95.778664
PG08   7751.741543 -16944.564880  18876.223911     -4.620452
PG09  -7530.535591 -25402.296943  -1841.231213    -18.762381
PG10  21914.434678  11489.845549   9995.698453    -33.720880
PG11   8326.594267 -25303.135600   1533.429011   -521.273991
PG12 -10493.412697  11966.005478 -21447.482369    209.053335
PG13 -13744.396053   6860.821065  21549.047806    -47.049593
PG14  15926.779147   8983.176172 -19002.415913    -63.972203
PG15  -6455.846231  18196.955209  17794.621062   -290.583376
PG16  24543.299255    -31.821741  10496.659529    -69.525335
PG17 -14308.652460 -17285.443300 -13860.885786    116.133313
PG18  17026.831635 -20251.720817    969.201921     81.842601
PG19 -15415.208514 -11073.674110 -18865.156692   -274.095027
PG20  14558.701718  13976.050190  17246.617328    526.674101
PG21   5846.306188  16616.276925  20721.802932   -127.542258
PG22  13896.858480 -12357.105718 -18709.814828   -749.534099
PG23   1374.204573 -23019.377767 -12485.788212   -169.570563
PG24 -13581.816988  22225.124660  -4319.885395     -1.457920
PG25   5204.847379  15784.882003 -20983.859589     -9.946477
PG26  26310.846621   4281.480650    456.891648     27.144387
PG27  14424.166349  -3396.480246  21938.007707    -39.631811
PG28 -20630.846543 -13464.153668  10392.540666    763.556738
PG29   3801.781564  25909.711392  -4402.499932    111.428257
PG30 -10612.906231 -11574.875499  21448.486332    -30.155207
PG31  17869.450469   1204.799764 -19758.421369     13.847752
PG32  15786.445927  16511.481428 -13589.562169     38.341719
PJ01 -26039.417441  22881.883899  29124.983553   -253.487243
PJ02 -35933.449228  19168.305705  -6478.435304     -3.167420
PJ03 -19951.758224  26487.901715 -21420.869543     -1.193340
PJ07      0.000000      0.000000      0.000000 999999.999999
PR01  16737.500222   1692.626611 -19167.271996     48.943252
PR02    143.380383 -13325.620215 -21701.274911    385.688832
PR03 -14521.722198 -18413.575135  -9942.422982      0.784027
PR05 -15070.577985    -63.034141  20583.380059     34.780447
PR07  14844.510741  18462.260318   9542.275214    -25.843732
PR08  20724.236118  12982.641433  -7221.147042     15.913093
PR09 -10367.743291  13575.505281 -18955.285490     88.017529
PR11  20958.898492   -136.183741 -14477.998626    -77.687226
PR12  23706.355364  -9330.228320   1454.275558     57.197787
PR13  12513.068391 -13565.580854  17592.805545    -27.757214
PR14  -5565.495329  -9663.931910  22960.214320     42.470264
PR15 -20463.924427   -335.236137  15255.265364    103.743844
PR16 -23431.439056   9797.296531  -1641.020140      5.311824
PR17  -1522.808777 -22446.211366 -12061.619532    256.092245
PR18  -8736.592136  -8505.832353 -22388.319353      5.665274
PR19 -11447.347772   9495.096736 -20725.402969    -51.110304
PR20  -7492.592732  23762.946335  -5552.376231   -388.954588
PR21   1834.379686  22013.004505  12721.801959    -69.212278
PR22   9470.389542   5651.792239  23009.494947    -35.401496
PR23  10824.364700 -15172.058815  17406.709627    250.604558
PR24   6221.955599 -24479.025530   3516.038590   -184.196993
EOF
